{"type": "FeatureCollection", "features": [ {"type": "Feature", "properties": {"norad_id": 66939, "name": "STARLINK-36154", "group": "last-30-days", "lat": 6.370489674704289, "lon": -8.991239276180655, "alt_km": 389.5622290909296, "timestamp": "2025-12-25T14:48:23.571509+00:00", "meta": {"OBJECT_NAME": "STARLINK-36154", "OBJECT_ID": "2025-286Q", "EPOCH": "2025-12-25T06:00:04.000320", "MEAN_MOTION": 15.60929274, "ECCENTRICITY": 0.00013783, "INCLINATION": 53.1597, "RA_OF_ASC_NODE": 347.9906, "ARG_OF_PERICENTER": 78.0802, "MEAN_ANOMALY": 28.2084, "EPHEMERIS_TYPE": 0, "CLASSIFICATION_TYPE": "U", "NORAD_CAT_ID": 66939, "ELEMENT_SET_NO": 999, "REV_AT_EPOCH": 400, "BSTAR": -0.026853376, "MEAN_MOTION_DOT": -0.02010765, "MEAN_MOTION_DDOT": 0}, "tle": {"line1": "1 66939U 25286Q   25359.25004630 -.02010765  00000+0 -26853-1 0  9997", "line2": "2 66939  53.1597 347.9906 0001378  78.0802  28.2084 15.60929274  4000"}}, "geometry": {"type": "Point", "coordinates": [-8.991239276180655, 6.370489674704289]}}, {"type": "Feature", "properties": {"norad_id": 66940, "name": "STARLINK-36121", "group": "last-30-days", "lat": 7.898467251904709, "lon": -7.826280708305309, "alt_km": 389.1917993882271, "timestamp": "2025-12-25T14:48:23.571518+00:00", "meta": {"OBJECT_NAME": "STARLINK-36121", "OBJECT_ID": "2025-286R", "EPOCH": "2025-12-25T06:00:04.000320", "MEAN_MOTION": 15.60926924, "ECCENTRICITY": 0.0001375, "INCLINATION": 53.1598, "RA_OF_ASC_NODE": 347.9868, "ARG_OF_PERICENTER": 69.0523, "MEAN_ANOMALY": 39.1527, "EPHEMERIS_TYPE": 0, "CLASSIFICATION_TYPE": "U", "NORAD_CAT_ID": 66940, "ELEMENT_SET_NO": 999, "REV_AT_EPOCH": 400, "BSTAR": -0.026778428, "MEAN_MOTION_DOT": -0.02005686, "MEAN_MOTION_DDOT": 0}, "tle": {"line1": "1 66940U 25286R   25359.25004630 -.02005686  00000+0 -26778-1 0  9991", "line2": "2 66940  53.1598 347.9868 0001375  69.0523  39.1527 15.60926924  4009"}}, "geometry": {"type": "Point", "coordinates": [-7.826280708305309, 7.898467251904709]}}, {"type": "Feature", "properties": {"norad_id": 66941, "name": "STARLINK-36088", "group": "last-30-days", "lat": 20.918847521520636, "lon": 2.822658214251041, "alt_km": 381.6755171602117, "timestamp": "2025-12-25T14:48:23.571527+00:00", "meta": {"OBJECT_NAME": "STARLINK-36088", "OBJECT_ID": "2025-286S", "EPOCH": "2025-12-25T06:00:04.000320", "MEAN_MOTION": 15.6276667, "ECCENTRICITY": 0.00014189, "INCLINATION": 53.1594, "RA_OF_ASC_NODE": 347.9576, "ARG_OF_PERICENTER": 76.0289, "MEAN_ANOMALY": 46.3368, "EPHEMERIS_TYPE": 0, "CLASSIFICATION_TYPE": "U", "NORAD_CAT_ID": 66941, "ELEMENT_SET_NO": 999, "REV_AT_EPOCH": 400, "BSTAR": -0.024758724, "MEAN_MOTION_DOT": -0.01994776, "MEAN_MOTION_DDOT": 0}, "tle": {"line1": "1 66941U 25286S   25359.25004630 -.01994776  00000+0 -24759-1 0  9995", "line2": "2 66941  53.1594 347.9576 0001418  76.0289  46.3368 15.62766670  4002"}}, "geometry": {"type": "Point", "coordinates": [2.822658214251041, 20.918847521520636]}}, {"type": "Feature", "properties": {"norad_id": 66942, "name": "STARLINK-36100", "group": "last-30-days", "lat": 9.424426314184771, "lon": -6.652136887027203, "alt_km": 388.9952841345648, "timestamp": "2025-12-25T14:48:23.571535+00:00", "meta": {"OBJECT_NAME": "STARLINK-36100", "OBJECT_ID": "2025-286T", "EPOCH": "2025-12-25T06:00:04.000320", "MEAN_MOTION": 15.60923444, "ECCENTRICITY": 0.00013032, "INCLINATION": 53.1597, "RA_OF_ASC_NODE": 347.9825, "ARG_OF_PERICENTER": 71.2287, "MEAN_ANOMALY": 38.8975, "EPHEMERIS_TYPE": 0, "CLASSIFICATION_TYPE": "U", "NORAD_CAT_ID": 66942, "ELEMENT_SET_NO": 999, "REV_AT_EPOCH": 393, "BSTAR": -0.026742657, "MEAN_MOTION_DOT": -0.02003048, "MEAN_MOTION_DDOT": 0}, "tle": {"line1": "1 66942U 25286T   25359.25004630 -.02003048  00000+0 -26743-1 0  9995", "line2": "2 66942  53.1597 347.9825 0001303  71.2287  38.8975 15.60923444  3934"}}, "geometry": {"type": "Point", "coordinates": [-6.652136887027203, 9.424426314184771]}}, {"type": "Feature", "properties": {"norad_id": 66943, "name": "STARLINK-36109", "group": "last-30-days", "lat": 10.944009395307429, "lon": -5.469271793759886, "alt_km": 388.7147146458474, "timestamp": "2025-12-25T14:48:23.571544+00:00", "meta": {"OBJECT_NAME": "STARLINK-36109", "OBJECT_ID": "2025-286U", "EPOCH": "2025-12-25T06:00:04.000320", "MEAN_MOTION": 15.60924229, "ECCENTRICITY": 0.00014043, "INCLINATION": 53.1597, "RA_OF_ASC_NODE": 347.9784, "ARG_OF_PERICENTER": 71.8126, "MEAN_ANOMALY": 40.2296, "EPHEMERIS_TYPE": 0, "CLASSIFICATION_TYPE": "U", "NORAD_CAT_ID": 66943, "ELEMENT_SET_NO": 999, "REV_AT_EPOCH": 393, "BSTAR": -0.026752815, "MEAN_MOTION_DOT": -0.02003843, "MEAN_MOTION_DDOT": 0}, "tle": {"line1": "1 66943U 25286U   25359.25004630 -.02003843  00000+0 -26753-1 0  9990", "line2": "2 66943  53.1597 347.9784 0001404  71.8126  40.2296 15.60924229  3934"}}, "geometry": {"type": "Point", "coordinates": [-5.469271793759886, 10.944009395307429]}}, {"type": "Feature", "properties": {"norad_id": 66944, "name": "STARLINK-36112", "group": "last-30-days", "lat": 12.45790940349863, "lon": -4.275209530858093, "alt_km": 388.5155506132742, "timestamp": "2025-12-25T14:48:23.571553+00:00", "meta": {"OBJECT_NAME": "STARLINK-36112", "OBJECT_ID": "2025-286V", "EPOCH": "2025-12-25T06:00:04.000320", "MEAN_MOTION": 15.60936065, "ECCENTRICITY": 0.00015224, "INCLINATION": 53.1593, "RA_OF_ASC_NODE": 347.974, "ARG_OF_PERICENTER": 78.0621, "MEAN_ANOMALY": 35.8914, "EPHEMERIS_TYPE": 0, "CLASSIFICATION_TYPE": "U", "NORAD_CAT_ID": 66944, "ELEMENT_SET_NO": 999, "REV_AT_EPOCH": 400, "BSTAR": -0.027015843, "MEAN_MOTION_DOT": -0.02021986, "MEAN_MOTION_DDOT": 0}, "tle": {"line1": "1 66944U 25286V   25359.25004630 -.02021986  00000+0 -27016-1 0  9992", "line2": "2 66944  53.1593 347.9740 0001522  78.0621  35.8914 15.60936065  4000"}}, "geometry": {"type": "Point", "coordinates": [-4.275209530858093, 12.45790940349863]}}, {"type": "Feature", "properties": {"norad_id": 66945, "name": "STARLINK-36110", "group": "last-30-days", "lat": 13.971484161885238, "lon": -3.062892872903495, "alt_km": 388.2475953977746, "timestamp": "2025-12-25T14:48:23.571563+00:00", "meta": {"OBJECT_NAME": "STARLINK-36110", "OBJECT_ID": "2025-286W", "EPOCH": "2025-12-25T06:00:04.000320", "MEAN_MOTION": 15.60927458, "ECCENTRICITY": 0.00013505, "INCLINATION": 53.1595, "RA_OF_ASC_NODE": 347.9699, "ARG_OF_PERICENTER": 73.5203, "MEAN_ANOMALY": 42.3551, "EPHEMERIS_TYPE": 0, "CLASSIFICATION_TYPE": "U", "NORAD_CAT_ID": 66945, "ELEMENT_SET_NO": 999, "REV_AT_EPOCH": 400, "BSTAR": -0.026837042, "MEAN_MOTION_DOT": -0.02009549, "MEAN_MOTION_DDOT": 0}, "tle": {"line1": "1 66945U 25286W   25359.25004630 -.02009549  00000+0 -26837-1 0  9994", "line2": "2 66945  53.1595 347.9699 0001350  73.5203  42.3551 15.60927458  4007"}}, "geometry": {"type": "Point", "coordinates": [-3.062892872903495, 13.971484161885238]}}, {"type": "Feature", "properties": {"norad_id": 66946, "name": "STARLINK-36115", "group": "last-30-days", "lat": 15.475320047361711, "lon": -1.8372790994111636, "alt_km": 387.97062606252985, "timestamp": "2025-12-25T14:48:23.571572+00:00", "meta": {"OBJECT_NAME": "STARLINK-36115", "OBJECT_ID": "2025-286X", "EPOCH": "2025-12-25T06:00:04.000320", "MEAN_MOTION": 15.60930586, "ECCENTRICITY": 0.00013878, "INCLINATION": 53.1596, "RA_OF_ASC_NODE": 347.966, "ARG_OF_PERICENTER": 73.5255, "MEAN_ANOMALY": 44.2628, "EPHEMERIS_TYPE": 0, "CLASSIFICATION_TYPE": "U", "NORAD_CAT_ID": 66946, "ELEMENT_SET_NO": 999, "REV_AT_EPOCH": 400, "BSTAR": -0.026860938, "MEAN_MOTION_DOT": -0.02011358, "MEAN_MOTION_DDOT": 0}, "tle": {"line1": "1 66946U 25286X   25359.25004630 -.02011358  00000+0 -26861-1 0  9993", "line2": "2 66946  53.1596 347.9660 0001387  73.5255  44.2628 15.60930586  4006"}}, "geometry": {"type": "Point", "coordinates": [-1.8372790994111636, 15.475320047361711]}}, {"type": "Feature", "properties": {"norad_id": 66947, "name": "STARLINK-36089", "group": "last-30-days", "lat": 18.463940908382117, "lon": 0.6712447999674511, "alt_km": 387.46496780251346, "timestamp": "2025-12-25T14:48:23.571582+00:00", "meta": {"OBJECT_NAME": "STARLINK-36089", "OBJECT_ID": "2025-286Y", "EPOCH": "2025-12-25T06:00:04.000320", "MEAN_MOTION": 15.60930938, "ECCENTRICITY": 0.00013748, "INCLINATION": 53.1594, "RA_OF_ASC_NODE": 347.9573, "ARG_OF_PERICENTER": 74.3391, "MEAN_ANOMALY": 47.283, "EPHEMERIS_TYPE": 0, "CLASSIFICATION_TYPE": "U", "NORAD_CAT_ID": 66947, "ELEMENT_SET_NO": 999, "REV_AT_EPOCH": 400, "BSTAR": -0.026867284, "MEAN_MOTION_DOT": -0.02011789, "MEAN_MOTION_DDOT": 0}, "tle": {"line1": "1 66947U 25286Y   25359.25004630 -.02011789  00000+0 -26867-1 0  9998", "line2": "2 66947  53.1594 347.9573 0001374  74.3391  47.2830 15.60930938  4003"}}, "geometry": {"type": "Point", "coordinates": [0.6712447999674511, 18.463940908382117]}}, {"type": "Feature", "properties": {"norad_id": 66948, "name": "STARLINK-36116", "group": "last-30-days", "lat": 16.973547514856904, "lon": -0.5929880137764141, "alt_km": 387.7088520423913, "timestamp": "2025-12-25T14:48:23.571590+00:00", "meta": {"OBJECT_NAME": "STARLINK-36116", "OBJECT_ID": "2025-286Z", "EPOCH": "2025-12-25T06:00:04.000320", "MEAN_MOTION": 15.60930083, "ECCENTRICITY": 0.00013808, "INCLINATION": 53.1596, "RA_OF_ASC_NODE": 347.9617, "ARG_OF_PERICENTER": 73.2183, "MEAN_ANOMALY": 46.4871, "EPHEMERIS_TYPE": 0, "CLASSIFICATION_TYPE": "U", "NORAD_CAT_ID": 66948, "ELEMENT_SET_NO": 999, "REV_AT_EPOCH": 400, "BSTAR": -0.026847308, "MEAN_MOTION_DOT": -0.02010425, "MEAN_MOTION_DDOT": 0}, "tle": {"line1": "1 66948U 25286Z   25359.25004630 -.02010425  00000+0 -26847-1 0  9993", "line2": "2 66948  53.1596 347.9617 0001380  73.2183  46.4871 15.60930083  4006"}}, "geometry": {"type": "Point", "coordinates": [-0.5929880137764141, 16.973547514856904]}}]}